      2.10          N: GNSS NAV DATA                        RINEX VERSION / TYPE
fic2rin                                 12/07/2023 00:17:51 PGM / RUN BY / DATE
                                                            END OF HEADER
8  23 12  6  1 59 44.0 -.155542511493D-03 -.193267624127D-11  .000000000000D+00
     .500000000000D+01 -.437500000000D+00  .482984403953D-08  .250532774292D+01
     .447034835815D-07  .902889319696D-02  .596977770329D-05  .515378991508D+04
     .266384000000D+06 -.188127160072D-06 -.220866068383D+01 -.447034835815D-07
     .955839825903D+00  .262843750000D+03  .283774609289D+00 -.820391315448D-08
    -.186436337250D-09  .100000000000D+01  .229100000000D+04  .000000000000D+00
     .240000000000D+01  .000000000000D+00  .512227416039D-08  .500000000000D+01
     .259200000000D+06  .400000000000D+01
30 23 12  6 20  0  0.0 -.460403040051D-03  .420641299570D-11  .000000000000D+00
     .180000000000D+02 -.281250000000D+00  .506271088223D-08  .277843042334D+01
     .484287738800D-07  .660686742049D-02  .110063701868D-04  .515372831917D+04
     .331200000000D+06 -.167638063431D-07  .201506537300D+01 -.100582838058D-06
     .935153751719D+00  .155187500000D+03 -.255361519575D+01 -.810212320024D-08
     .310727228751D-10  .100000000000D+01  .229100000000D+04  .000000000000D+00
     .240000000000D+01  .000000000000D+00  .372529029846D-08  .180000000000D+02
     .324000000000D+06  .400000000000D+01
17 23 12  6 20  0  0.0  .722376629710D-03 -.454747350886D-12  .000000000000D+00
     .290000000000D+02 -.110625000000D+02  .457376194412D-08 -.525414739210D+00
    -.614672899246D-06  .138088560198D-01  .592507421970D-05  .515362548447D+04
     .331200000000D+06 -.143423676491D-06 -.211715215753D+01  .353902578354D-07
     .971465667913D+00  .275250000000D+03 -.136503895727D+01 -.843070831570D-08
    -.248581783000D-09  .100000000000D+01  .229100000000D+04  .000000000000D+00
     .240000000000D+01  .000000000000D+00 -.111758708954D-07  .290000000000D+02
     .324000000000D+06  .400000000000D+01
15 23 12  6 20  0  0.0  .104314647615D-03  .375166564481D-11  .000000000000D+00
     .940000000000D+02 -.349375000000D+02  .528057710009D-08 -.158894608578D+01
    -.150874257088D-05  .154588270234D-01  .507012009621D-05  .515357491493D+04
     .331200000000D+06  .327825546265D-06  .816050801483D+00  .230967998505D-06
     .933776259278D+00  .260906250000D+03  .127795045801D+01 -.844428030960D-08
     .414302971667D-10  .100000000000D+01  .229100000000D+04  .000000000000D+00
     .240000000000D+01  .000000000000D+00 -.102445483208D-07  .940000000000D+02
     .324000000000D+06  .400000000000D+01
11 23 12  6 20  0  0.0 -.490203965455D-03 -.154614099301D-10  .000000000000D+00
     .130000000000D+03 -.211562500000D+02  .419838916547D-08 -.132318931098D+01
    -.108778476715D-05  .128672563005D-02  .926479697227D-05  .515363774490D+04
     .331200000000D+06  .800937414169D-07 -.108213061053D+01 -.521540641785D-07
     .965949214496D+00  .207062500000D+03 -.253937011580D+01 -.793140180329D-08
    -.775032283206D-10  .100000000000D+01  .229100000000D+04  .000000000000D+00
     .240000000000D+01  .000000000000D+00 -.838190317154D-08  .898000000000D+03
     .324000000000D+06  .400000000000D+01
31 23 12  6 20  0  0.0 -.226385891438D-03 -.341060513165D-12  .000000000000D+00
     .790000000000D+02 -.353125000000D+01  .464376486002D-08  .201991164755D+01
    -.165775418282D-06  .106325626839D-01  .104233622551D-04  .515366048431D+04
     .331200000000D+06 -.260770320892D-06  .203264630408D+01 -.577419996262D-07
     .954061880118D+00  .178250000000D+03  .635024568259D+00 -.797568936233D-08
    -.560737642688D-10  .100000000000D+01  .229100000000D+04  .000000000000D+00
     .240000000000D+01  .000000000000D+00 -.135041773319D-07  .790000000000D+02
     .324000000000D+06  .400000000000D+01
27 23 12  6 20  0  0.0 -.796206295490D-04 -.488853402203D-11  .000000000000D+00
     .440000000000D+02 -.625000000000D+01  .470591030577D-08 -.464505840693D+00
    -.309199094772D-06  .119367449079D-01  .491179525852D-05  .515366854286D+04
     .331200000000D+06 -.745058059692D-08 -.218420809153D+01  .191852450371D-06
     .964769044835D+00  .284937500000D+03  .742719061573D+00 -.842892252703D-08
    -.320727645308D-09  .100000000000D+01  .229100000000D+04  .000000000000D+00
     .240000000000D+01  .000000000000D+00  .186264514923D-08  .440000000000D+02
     .324000000000D+06  .400000000000D+01
16 23 12  6 20  0  0.0 -.409055501223D-03  .704858393874D-11  .000000000000D+00
     .730000000000D+02  .639375000000D+02  .473805450185D-08  .434277848227D+00
     .358559191227D-05  .137586136116D-01  .627152621746D-05  .515369706535D+04
     .331200000000D+06 -.670552253723D-07 -.313824951127D+01  .178813934326D-06
     .963703216850D+00  .259437500000D+03  .805267572341D+00 -.837749181330D-08
    -.160720980388D-10  .100000000000D+01  .229100000000D+04  .000000000000D+00
     .240000000000D+01  .000000000000D+00 -.102445483208D-07  .730000000000D+02
     .324000000000D+06  .400000000000D+01
22 23 12  6 20  0  0.0  .707590952516D-04 -.682121026330D-11  .000000000000D+00
     .103000000000D+03  .559687500000D+02  .484305887570D-08  .837721897908D-02
     .289455056190D-05  .149071211927D-01  .659376382828D-05  .515372330475D+04
     .331200000000D+06 -.117346644402D-06 -.313495354806D+01 -.165775418282D-06
     .962986477692D+00  .256531250000D+03 -.115758942748D+01 -.850463996668D-08
     .153577825704D-09  .100000000000D+01  .229100000000D+04  .000000000000D+00
     .340000000000D+01  .000000000000D+00 -.111758708954D-07  .103000000000D+03
     .324000000000D+06  .400000000000D+01
21 23 12  6 20  0  0.0  .142293050885D-03 -.113686837722D-11  .000000000000D+00
     .730000000000D+02 -.191562500000D+02  .441161233279D-08 -.566482087133D+00
    -.110268592834D-05  .250067948364D-01  .840798020363D-05  .515374317932D+04
     .331200000000D+06 -.247731804848D-06 -.121977337614D+01 -.458210706711D-06
     .961752497515D+00  .224406250000D+03 -.673333263765D+00 -.826212986516D-08
     .214294640518D-10  .100000000000D+01  .229100000000D+04  .000000000000D+00
     .240000000000D+01  .000000000000D+00 -.102445483208D-07  .730000000000D+02
     .324000000000D+06  .400000000000D+01
20 23 12  6 20  0  0.0  .397972296923D-03 -.193267624127D-11  .000000000000D+00
     .520000000000D+02  .656250000000D+01  .463947896721D-08 -.192972012495D+01
     .420957803726D-06  .407610624097D-02  .731647014618D-05  .515366994476D+04
     .331200000000D+06  .242143869400D-07 -.256728643584D+00 -.912696123123D-07
     .951642272132D+00  .232718750000D+03 -.273517883778D+01 -.816891169653D-08
     .381087302387D-09  .100000000000D+01  .229100000000D+04  .000000000000D+00
     .240000000000D+01  .000000000000D+00 -.838190317154D-08  .520000000000D+02
     .324000000000D+06  .400000000000D+01
26 23 12  6 20  0  0.0  .211314763874D-03 -.295585778076D-11  .000000000000D+00
     .760000000000D+02  .696562500000D+02  .537522389965D-08  .121450322400D+01
     .387616455555D-05  .865366589278D-02  .722147524357D-05  .515379828453D+04
     .331200000000D+06  .000000000000D+00  .298312489071D+01  .150874257088D-06
     .932676653978D+00  .224906250000D+03  .504377804606D+00 -.858178603726D-08
     .392873507616D-11  .100000000000D+01  .229100000000D+04  .000000000000D+00
     .240000000000D+01  .000000000000D+00  .698491930962D-08  .760000000000D+02
     .324000000000D+06  .400000000000D+01
25 23 12  6 20  0  0.0  .480426475406D-03  .147792889038D-11  .000000000000D+00
     .470000000000D+02  .675937500000D+02  .483341561688D-08  .203347721376D+01
     .333227217197D-05  .115547111491D-01  .748597085476D-05  .515364539337D+04
     .331200000000D+06 -.169500708580D-06  .304235655365D+01 -.268220901489D-06
     .951926599038D+00  .228687500000D+03  .105808054160D+01 -.812998150351D-08
     .166792661870D-09  .100000000000D+01  .229100000000D+04  .000000000000D+00
     .240000000000D+01  .000000000000D+00  .558793544769D-08  .470000000000D+02
     .324000000000D+06  .400000000000D+01
19 23 12  6 20  0  0.0  .408859457821D-03  .522959453519D-11  .000000000000D+00
     .830000000000D+02 -.159375000000D+02  .451375944477D-08  .152415448711D+01
    -.853091478348D-06  .936469284352D-02  .530295073986D-05  .515366720200D+04
     .331200000000D+06  .197440385818D-06 -.207271518847D+01  .745058059692D-07
     .970579734965D+00  .279812500000D+03  .245487996386D+01 -.811998108695D-08
    -.435018120251D-09  .100000000000D+01  .229100000000D+04  .000000000000D+00
     .240000000000D+01  .000000000000D+00 -.153668224812D-07  .830000000000D+02
     .324000000000D+06  .400000000000D+01
18 23 12  6 20  0  0.0 -.499223358929D-03 -.103455022327D-10  .000000000000D+00
     .990000000000D+02 -.241250000000D+02  .402123892931D-08 -.262981734917D+01
    -.127218663692D-05  .383228762075D-02  .878423452377D-05  .515364499474D+04
     .331200000000D+06 -.409781932831D-07 -.111253559561D+01 -.223517417908D-07
     .974313221862D+00  .218125000000D+03 -.302732601105D+01 -.780853954273D-08
    -.596453416107D-10  .100000000000D+01  .229100000000D+04  .000000000000D+00
     .240000000000D+01  .000000000000D+00 -.838190317154D-08  .355000000000D+03
     .324000000000D+06  .400000000000D+01
28 23 12  6 20  0  0.0 -.633932650089D-04 -.954969436862D-11  .000000000000D+00
     .162000000000D+03 -.643750000000D+01  .452054544172D-08  .137016491835D+01
    -.257045030594D-06  .764684169553D-03  .989809632301D-05  .515354862213D+04
     .331200000000D+06 -.745058059692D-08  .197676457286D+01 -.204890966415D-07
     .961129692327D+00  .190187500000D+03  .168304032417D+01 -.792104422900D-08
    -.410731394325D-10  .100000000000D+01  .229100000000D+04  .000000000000D+00
     .240000000000D+01  .000000000000D+00 -.931322574615D-08  .418000000000D+03
     .324000000000D+06  .400000000000D+01
